IRIDIUM 39              
1 25042U 97069D   25113.85686789  .00001396  00000+0  36109-3 0  9993
2 25042  86.3928 234.4068 0019754 125.1822 235.1236 14.49137617441098
IRIDIUM 38              
1 25043U 97069E   25113.68726463  .00000944  00000+0  30556-3 0  9997
2 25043  86.3933 256.0789 0000235  67.2199 292.9024 14.38057489438124
IRIDIUM 42              
1 25077U 97077A   25113.69627612  .00000894  00000+0  29950-3 0  9990
2 25077  86.3926 262.1820 0001461  82.6293 277.5070 14.36297387433378
IRIDIUM 44              
1 25078U 97077B   25113.79776750  .00000854  00000+0  26422-3 0  9997
2 25078  86.3956 244.1962 0002231 145.4073 214.7271 14.40187584435874
IRIDIUM 45              
1 25104U 97082A   25112.93408083  .00023112  00000+0  87391-3 0  9993
2 25104  86.3563  74.6749 0121950 176.6884 183.5197 15.20045173443643
IRIDIUM 24              
1 25105U 97082B   25113.70185237  .00001021  00000+0  30512-3 0  9991
2 25105  86.3859 103.4161 0009098 255.7467 104.2722 14.42031591435361
IRIDIUM 51              
1 25262U 98018A   25113.63136050  .00045411  00000+0  11229-2 0  9990
2 25262  86.3823  82.7602 0098979  99.2104 262.0360 15.35264232438648
IRIDIUM 57              
1 25273U 98019B   25113.67592136  .00000570  00000+0  19001-3 0  9992
2 25273  86.4002 168.0917 0002211  93.6234 266.5215 14.35851358416962
